[{"OBJECT_NAME":"STARLINK-32544","OBJECT_ID":"2024-207F","EPOCH":"2026-03-09T22:50:03.132960","MEAN_MOTION":15.27604471,"ECCENTRICITY":0.00012267,"INCLINATION":43.0027,"RA_OF_ASC_NODE":280.129,"ARG_OF_PERICENTER":305.5012,"MEAN_ANOMALY":54.5725,"EPHEMERIS_TYPE":0,"CLASSIFICATION_TYPE":"U","NORAD_CAT_ID":61917,"ELEMENT_SET_NO":999,"REV_AT_EPOCH":7476,"BSTAR":0.0015001223,"MEAN_MOTION_DOT":0.0004128,"MEAN_MOTION_DDOT":0},{"OBJECT_NAME":"KUIPER-00226","OBJECT_ID":"2026-030X","EPOCH":"2026-03-09T15:01:51.726432","MEAN_MOTION":15.30655594,"ECCENTRICITY":0.0017713,"INCLINATION":51.8814,"RA_OF_ASC_NODE":220.1252,"ARG_OF_PERICENTER":64.2781,"MEAN_ANOMALY":296.003,"EPHEMERIS_TYPE":0,"CLASSIFICATION_TYPE":"U","NORAD_CAT_ID":67785,"ELEMENT_SET_NO":999,"REV_AT_EPOCH":507,"BSTAR":0.001553,"MEAN_MOTION_DOT":0.00046834,"MEAN_MOTION_DDOT":0}]
